PERSEUS-M1              
1 40039U 14033AF  26162.34940913  .00001092  00000+0  10369-3 0  9990
2 40039  97.9645 106.3857 0010654 323.7126  36.3370 14.95615033649769
POLYITAN-1              
1 40042U 14033AJ  26162.56992700  .00017209  00000+0  54049-3 0  9999
2 40042  98.0948 188.3000 0008221 157.2882 202.8723 15.33059445652732
TIGRISAT                
1 40043U 14033AK  26162.65853057  .00001873  00000+0  22021-3 0  9996
2 40043  97.7821 312.7974 0050728  92.8677 267.8345 14.85141538644808
AEROCUBE 6A             
1 40045U 14033AM  26162.41291873  .00005094  00000+0  42915-3 0  9997
2 40045  97.7224 329.4233 0039279  37.3368 323.0573 14.98044146645753
AEROCUBE 6B             
1 40046U 14033AN  26162.42087914  .00005257  00000+0  42635-3 0  9998
2 40046  97.7232 329.2086 0038788  28.9974 331.3393 14.99510732645897
CANX-4                  
1 40055U 14034C   26162.61273681  .00000831  00000+0  11381-3 0  9995
2 40055  98.3130  37.7210 0013549  34.1923 326.0158 14.81254668643704
CANX-5                  
1 40056U 14034D   26162.61123470  .00000829  00000+0  11358-3 0  9997
2 40056  98.3132  37.7628 0013559  34.2824 325.9260 14.81271812634513
UKUBE-1                 
1 40074U 14037F   26162.54870419  .00008430  00000+0  47547-3 0  9999
2 40074  98.4236 165.2283 0002250 139.8692 220.2703 15.13464824647701
BRITE-PL2 (HEWELIUSZ)   
1 40119U 14049B   26162.61554125  .00001285  00000+0  12409-3 0  9993
2 40119  97.9092 274.5729 0015129 124.9359 235.3285 14.94576660640613
AEROCUBE 5C             
1 40965U 15058B   26162.60539087  .00002265  00000+0  20720-3 0  9996
2 40965  64.7678 279.9542 0130533  65.4583 296.0071 14.91428215364823
AEROCUBE 7              
1 40966U 15058C   26162.61764987  .00003059  00000+0  25122-3 0  9990
2 40966  64.7627 262.2601 0120245  63.9126 297.4305 14.95691009365120
FOX-1A (AO-85)          
1 40967U 15058D   26162.65117110  .00002319  00000+0  21466-3 0  9990
2 40967  64.7758 296.1869 0130118  58.7517 302.6266 14.90943222112749
SINOD-D 1               
1 40968U 15058E   26162.66312588  .00003121  00000+0  25567-3 0  9996
2 40968  64.7758 276.2111 0118713  55.2811 305.9416 14.95871014115835
SNAP-3 ALICE            
1 40970U 15058G   26162.59455167  .00118512  00000+0  14744-2 0  9997
2 40970  64.7488 123.2448 0029743  15.7285 344.4777 15.58806886116016
LMRST-SAT               
1 40971U 15058H   26162.67215882  .00002174  00000+0  20340-3 0  9991
2 40971  64.7764 292.4497 0131789  60.7735 300.6481 14.90565541112737
SNAP-3 EDDIE            
1 40972U 15058J   26162.58905491  .00121487  00000+0  14444-2 0  9990
2 40972  64.7414 114.0293 0029455  20.0637 340.1659 15.59995138118152
PROPCUBE 3              
1 40973U 15058K   26162.65434388  .00002641  00000+0  22563-3 0  9993
2 40973  64.7688 269.8219 0123774  62.0937 299.2645 14.94227091113979
BISONSAT                
1 40974U 15058L   26162.42644667  .00008287  00000+0  40600-3 0  9996
2 40974  64.7587 192.2677 0078569  49.6418 311.1532 15.16064713114741
SNAP-3 JIMI             
1 40975U 15058M   26162.59733350  .00004211  00000+0  29449-3 0  9994
2 40975  64.7650 237.4576 0105888  57.6394 303.4919 15.02251266113388
PROPCUBE 1 (FLORA)      
1 40976U 15058N   26162.68917635  .00002330  00000+0  22532-3 0  9991
2 40976  64.7753 312.2756 0130502  63.0800 298.3575 14.89196900115445
SINOD-D 3               
1 40977U 15058P   26162.68512859  .00003191  00000+0  27428-3 0  9996
2 40977  64.7732 292.9996 0118993  60.3205 300.9692 14.93981808113938
HORYU-4                 
1 41340U 16012D   26161.10844880  .00337518  00000+0  10043-2 0  9997
2 41340  30.9844 130.8123 0003461 226.4757 133.5616 15.90526809569681
RAVAN                   
1 41849U 16067B   26162.63624074  .00046546  00000+0  71438-3 0  9995
2 41849  97.9904  51.5695 0005201  46.3690 313.7993 15.54146019526838
CELTEE 1                
1 41850U 16067C   26162.61022157  .00004578  00000+0  21851-3 0  9992
2 41850  98.0686  28.7972 0000667 111.8339 248.2965 15.19627997525034
OPTICUBE 04             
1 41851U 16067D   26162.57778480  .00001833  00000+0  11805-3 0  9994
2 41851  98.0710  14.5693 0016689 133.0286 227.2342 15.09637104524321
AEROCUBE 8D             
1 41852U 16067E   26162.57595654  .00007332  00000+0  30306-3 0  9992
2 41852  98.0697  32.3209 0004374 137.2528 222.9049 15.24320111525219
AEROCUBE 8C             
1 41853U 16067F   26162.60185875  .00006930  00000+0  28445-3 0  9991
2 41853  98.0570  29.5836 0006783  84.2863 275.9146 15.24566785525218
CORVUS BC2              
1 42846U 17042X   26162.41537550  .00002485  00000+0  17303-3 0  9990
2 42846  97.4049 323.9906 0014182 128.3697 231.8807 15.06255418486197
CORVUS BC1              
1 42847U 17042Y   26162.41064219  .00003158  00000+0  21789-3 0  9999
2 42847  97.4079 324.7960 0013167 106.9575 253.3097 15.06425135486228
MAKERSAT 0              
1 43016U 17073D   26162.62810659  .00018408  00000+0  50303-3 0  9990
2 43016  97.4637  45.1038 0105553 293.1636  65.8513 15.31905939465617
